[{"OBJECT_NAME":"ONEWEB-0375","OBJECT_ID":"2021-090Y","EPOCH":"2025-10-22T03:32:53.719872","MEAN_MOTION":13.207697,"ECCENTRICITY":0.000157,"INCLINATION":87.9201,"RA_OF_ASC_NODE":321.911,"ARG_OF_PERICENTER":76.9854,"MEAN_ANOMALY":283.1455,"EPHEMERIS_TYPE":0,"CLASSIFICATION_TYPE":"U","NORAD_CAT_ID":49301,"ELEMENT_SET_NO":999,"REV_AT_EPOCH":19910,"BSTAR":-0.00021685,"MEAN_MOTION_DOT":-7.5e-7,"MEAN_MOTION_DDOT":0},{"OBJECT_NAME":"ONEWEB-0376","OBJECT_ID":"2021-090Z","EPOCH":"2025-10-22T04:47:06.017280","MEAN_MOTION":13.19724511,"ECCENTRICITY":0.0001951,"INCLINATION":87.9259,"RA_OF_ASC_NODE":352.2967,"ARG_OF_PERICENTER":106.0095,"MEAN_ANOMALY":254.1253,"EPHEMERIS_TYPE":0,"CLASSIFICATION_TYPE":"U","NORAD_CAT_ID":49302,"ELEMENT_SET_NO":999,"REV_AT_EPOCH":19506,"BSTAR":3.1811e-5,"MEAN_MOTION_DOT":2.6e-7,"MEAN_MOTION_DDOT":0},{"OBJECT_NAME":"ONEWEB-0377","OBJECT_ID":"2021-090AA","EPOCH":"2025-10-22T03:12:38.992032","MEAN_MOTION":13.20771075,"ECCENTRICITY":0.0001993,"INCLINATION":87.9207,"RA_OF_ASC_NODE":321.9107,"ARG_OF_PERICENTER":88.9958,"MEAN_ANOMALY":271.1404,"EPHEMERIS_TYPE":0,"CLASSIFICATION_TYPE":"U","NORAD_CAT_ID":49303,"ELEMENT_SET_NO":999,"REV_AT_EPOCH":19909,"BSTAR":6.7042e-5,"MEAN_MOTION_DOT":4.0e-7,"MEAN_MOTION_DDOT":0},{"OBJECT_NAME":"ONEWEB-0378","OBJECT_ID":"2021-090AB","EPOCH":"2025-10-22T03:44:27.888576","MEAN_MOTION":13.20771293,"ECCENTRICITY":0.000174,"INCLINATION":87.9209,"RA_OF_ASC_NODE":321.9216,"ARG_OF_PERICENTER":91.5705,"MEAN_ANOMALY":268.5628,"EPHEMERIS_TYPE":0,"CLASSIFICATION_TYPE":"U","NORAD_CAT_ID":49304,"ELEMENT_SET_NO":999,"REV_AT_EPOCH":19836,"BSTAR":7.9521e-5,"MEAN_MOTION_DOT":4.5e-7,"MEAN_MOTION_DDOT":0},{"OBJECT_NAME":"ONEWEB-0379","OBJECT_ID":"2021-090AC","EPOCH":"2025-10-22T04:04:27.765120","MEAN_MOTION":13.14504488,"ECCENTRICITY":0.0001743,"INCLINATION":87.9025,"RA_OF_ASC_NODE":337.1206,"ARG_OF_PERICENTER":99.303,"MEAN_ANOMALY":260.8297,"EPHEMERIS_TYPE":0,"CLASSIFICATION_TYPE":"U","NORAD_CAT_ID":49305,"ELEMENT_SET_NO":999,"REV_AT_EPOCH":19629,"BSTAR":-3.2466e-5,"MEAN_MOTION_DOT":1.0e-8,"MEAN_MOTION_DDOT":0},{"OBJECT_NAME":"ONEWEB-0380","OBJECT_ID":"2021-090AD","EPOCH":"2025-10-22T04:42:33.190272","MEAN_MOTION":13.19724632,"ECCENTRICITY":0.0001818,"INCLINATION":87.9254,"RA_OF_ASC_NODE":352.3229,"ARG_OF_PERICENTER":92.3813,"MEAN_ANOMALY":267.7528,"EPHEMERIS_TYPE":0,"CLASSIFICATION_TYPE":"U","NORAD_CAT_ID":49306,"ELEMENT_SET_NO":999,"REV_AT_EPOCH":19503,"BSTAR":8.8985e-5,"MEAN_MOTION_DOT":4.9e-7,"MEAN_MOTION_DDOT":0},{"OBJECT_NAME":"ONEWEB-0381","OBJECT_ID":"2021-090AE","EPOCH":"2025-10-22T03:07:54.498432","MEAN_MOTION":13.20770937,"ECCENTRICITY":0.0001734,"INCLINATION":87.92,"RA_OF_ASC_NODE":321.9177,"ARG_OF_PERICENTER":87.114,"MEAN_ANOMALY":273.0192,"EPHEMERIS_TYPE":0,"CLASSIFICATION_TYPE":"U","NORAD_CAT_ID":49307,"ELEMENT_SET_NO":999,"REV_AT_EPOCH":19840,"BSTAR":5.5532e-5,"MEAN_MOTION_DOT":3.6e-7,"MEAN_MOTION_DDOT":0},{"OBJECT_NAME":"ONEWEB-0382","OBJECT_ID":"2021-090AF","EPOCH":"2025-10-22T02:49:43.078080","MEAN_MOTION":13.2077012,"ECCENTRICITY":0.0001584,"INCLINATION":87.9208,"RA_OF_ASC_NODE":321.9121,"ARG_OF_PERICENTER":90.0018,"MEAN_ANOMALY":270.1297,"EPHEMERIS_TYPE":0,"CLASSIFICATION_TYPE":"U","NORAD_CAT_ID":49308,"ELEMENT_SET_NO":999,"REV_AT_EPOCH":19839,"BSTAR":8.7463e-5,"MEAN_MOTION_DOT":4.9e-7,"MEAN_MOTION_DDOT":0},{"OBJECT_NAME":"ONEWEB-0383","OBJECT_ID":"2021-090AG","EPOCH":"2025-10-22T03:55:21.446688","MEAN_MOTION":13.14503546,"ECCENTRICITY":0.0001674,"INCLINATION":87.9029,"RA_OF_ASC_NODE":337.1046,"ARG_OF_PERICENTER":98.6835,"MEAN_ANOMALY":261.4485,"EPHEMERIS_TYPE":0,"CLASSIFICATION_TYPE":"U","NORAD_CAT_ID":49309,"ELEMENT_SET_NO":999,"REV_AT_EPOCH":19632,"BSTAR":-0.00038781,"MEAN_MOTION_DOT":-1.31e-6,"MEAN_MOTION_DDOT":0},{"OBJECT_NAME":"ONEWEB-0384","OBJECT_ID":"2021-090AH","EPOCH":"2025-10-22T02:41:40.837344","MEAN_MOTION":13.20795811,"ECCENTRICITY":0.0001309,"INCLINATION":87.9218,"RA_OF_ASC_NODE":321.9443,"ARG_OF_PERICENTER":91.1831,"MEAN_ANOMALY":268.9452,"EPHEMERIS_TYPE":0,"CLASSIFICATION_TYPE":"U","NORAD_CAT_ID":49310,"ELEMENT_SET_NO":999,"REV_AT_EPOCH":19840,"BSTAR":6.4421e-5,"MEAN_MOTION_DOT":3.9e-7,"MEAN_MOTION_DDOT":0},{"OBJECT_NAME":"ONEWEB-0385","OBJECT_ID":"2021-090AJ","EPOCH":"2025-10-22T02:38:21.974784","MEAN_MOTION":13.2077145,"ECCENTRICITY":0.0001721,"INCLINATION":87.9197,"RA_OF_ASC_NODE":321.9234,"ARG_OF_PERICENTER":92.3178,"MEAN_ANOMALY":267.8153,"EPHEMERIS_TYPE":0,"CLASSIFICATION_TYPE":"U","NORAD_CAT_ID":49311,"ELEMENT_SET_NO":999,"REV_AT_EPOCH":19837,"BSTAR":2.6977e-5,"MEAN_MOTION_DOT":2.4e-7,"MEAN_MOTION_DDOT":0},{"OBJECT_NAME":"ONEWEB-0386","OBJECT_ID":"2021-090AK","EPOCH":"2025-10-22T03:03:21.305952","MEAN_MOTION":13.20770978,"ECCENTRICITY":0.0001591,"INCLINATION":87.921,"RA_OF_ASC_NODE":321.8994,"ARG_OF_PERICENTER":92.2434,"MEAN_ANOMALY":267.8882,"EPHEMERIS_TYPE":0,"CLASSIFICATION_TYPE":"U","NORAD_CAT_ID":49312,"ELEMENT_SET_NO":999,"REV_AT_EPOCH":19839,"BSTAR":8.9586e-5,"MEAN_MOTION_DOT":4.9e-7,"MEAN_MOTION_DDOT":0},{"OBJECT_NAME":"ONEWEB-0387","OBJECT_ID":"2021-090AL","EPOCH":"2025-10-22T02:40:37.183008","MEAN_MOTION":13.207696,"ECCENTRICITY":0.0001853,"INCLINATION":87.9199,"RA_OF_ASC_NODE":321.9525,"ARG_OF_PERICENTER":84.4026,"MEAN_ANOMALY":275.7319,"EPHEMERIS_TYPE":0,"CLASSIFICATION_TYPE":"U","NORAD_CAT_ID":49313,"ELEMENT_SET_NO":999,"REV_AT_EPOCH":19839,"BSTAR":6.5924e-5,"MEAN_MOTION_DOT":4.0e-7,"MEAN_MOTION_DDOT":0},{"OBJECT_NAME":"ONEWEB-0388","OBJECT_ID":"2021-090AM","EPOCH":"2025-10-22T04:35:43.656000","MEAN_MOTION":13.19724466,"ECCENTRICITY":0.0001738,"INCLINATION":87.9245,"RA_OF_ASC_NODE":352.3289,"ARG_OF_PERICENTER":97.5761,"MEAN_ANOMALY":262.5569,"EPHEMERIS_TYPE":0,"CLASSIFICATION_TYPE":"U","NORAD_CAT_ID":49314,"ELEMENT_SET_NO":999,"REV_AT_EPOCH":19502,"BSTAR":0.00014378,"MEAN_MOTION_DOT":7.0e-7,"MEAN_MOTION_DDOT":0},{"OBJECT_NAME":"ONEWEB-0389","OBJECT_ID":"2021-132A","EPOCH":"2025-10-21T20:02:31.480512","MEAN_MOTION":13.17648585,"ECCENTRICITY":0.0001504,"INCLINATION":87.9116,"RA_OF_ASC_NODE":53.2666,"ARG_OF_PERICENTER":88.0367,"MEAN_ANOMALY":272.0937,"EPHEMERIS_TYPE":0,"CLASSIFICATION_TYPE":"U","NORAD_CAT_ID":50469,"ELEMENT_SET_NO":999,"REV_AT_EPOCH":18669,"BSTAR":1.6863206e-5,"MEAN_MOTION_DOT":1.9e-7,"MEAN_MOTION_DDOT":0},{"OBJECT_NAME":"ONEWEB-0390","OBJECT_ID":"2021-132B","EPOCH":"2025-10-21T20:04:56.552160","MEAN_MOTION":13.17647624,"ECCENTRICITY":0.00019511,"INCLINATION":87.911,"RA_OF_ASC_NODE":53.2718,"ARG_OF_PERICENTER":96.0399,"MEAN_ANOMALY":264.0955,"EPHEMERIS_TYPE":0,"CLASSIFICATION_TYPE":"U","NORAD_CAT_ID":50470,"ELEMENT_SET_NO":999,"REV_AT_EPOCH":18669,"BSTAR":6.6216134e-5,"MEAN_MOTION_DOT":3.9e-7,"MEAN_MOTION_DDOT":0},{"OBJECT_NAME":"ONEWEB-0391","OBJECT_ID":"2021-132C","EPOCH":"2025-10-22T01:35:26.041632","MEAN_MOTION":13.17648433,"ECCENTRICITY":0.0001746,"INCLINATION":87.9106,"RA_OF_ASC_NODE":53.2369,"ARG_OF_PERICENTER":70.6721,"MEAN_ANOMALY":289.4599,"EPHEMERIS_TYPE":0,"CLASSIFICATION_TYPE":"U","NORAD_CAT_ID":50471,"ELEMENT_SET_NO":999,"REV_AT_EPOCH":18672,"BSTAR":3.6813e-5,"MEAN_MOTION_DOT":2.7e-7,"MEAN_MOTION_DDOT":0}]
